NORAD_CAT_ID,OBJECT_NAME,OBJECT_TYPE,EPOCH,MEAN_MOTION,ECCENTRICITY,INCLINATION,RA_OF_ASC_NODE,ARG_OF_PERICENTER,MEAN_ANOMALY,BSTAR,MEAN_MOTION_DOT,MEAN_MOTION_DDOT,TLE_LINE0,TLE_LINE1,TLE_LINE2,SEMIMAJOR_AXIS,PERIOD,APOGEE,PERIGEE,DECAYED
53819.0,STARLINK-4738,PAYLOAD,2024-07-26 21:31:34,15.08855142,0.0001008,53.2167,76.164,99.08,261.0306,4.9275e-05,4.97e-06,0.0,0 STARLINK-4738,1 53819U 22114B   24208.89692204  .00000497  00000-0  49275-4 0  9993,2 53819  53.2167  76.1640 0001008  99.0800 261.0306 15.08855142103103,6917.834,95.437,540.396,539.002,0.0
53819.0,STARLINK-4738,PAYLOAD,2024-07-26 23:06:57,15.08856437,0.0001043,53.2165,75.8669,97.5511,262.56,5.9991e-05,6.67e-06,0.0,0 STARLINK-4738,1 53819U 22114B   24208.96316047  .00000667  00000-0  59991-4 0  9994,2 53819  53.2165  75.8669 0001043  97.5511 262.5600 15.08856437103650,6917.83,95.437,540.417,538.974,0.0
53819.0,STARLINK-4738,PAYLOAD,2024-07-27 21:22:22,15.08833914,0.0001151,53.217,71.7032,92.258,267.8544,-7.8313e-05,-1.534e-05,0.0,0 STARLINK-4738,1 53819U 22114B   24209.89053912 -.00001534  00000-0 -78313-4 0  9991,2 53819  53.2170  71.7032 0001151  92.2580 267.8544 15.08833914103798,6917.899,95.438,540.56,538.968,0.0
53819.0,STARLINK-4738,PAYLOAD,2024-07-28 21:13:09,15.08843843,0.0001375,53.2172,67.2446,95.8521,264.2628,-2.4414e-05,-6.77e-06,0.0,0 STARLINK-4738,1 53819U 22114B   24210.88413304 -.00000677  00000-0 -24414-4 0  9997,2 53819  53.2172  67.2446 0001375  95.8521 264.2628 15.08843843103405,6917.869,95.437,540.685,538.782,0.0
53819.0,STARLINK-4738,PAYLOAD,2024-07-29 14:42:23,15.08835942,0.0001427,53.2174,63.9737,97.0353,263.0802,9.1154e-05,1.163e-05,0.0,0 STARLINK-4738,1 53819U 22114B   24211.61277532  .00001163  00000-0  91154-4 0  9994,2 53819  53.2174  63.9737 0001427  97.0353 263.0802 15.08835942104052,6917.893,95.438,540.745,538.771,0.0
53819.0,STARLINK-4738,PAYLOAD,2024-07-29 21:03:56,15.0883909,0.000144,53.2176,62.7847,95.3573,264.7583,0.00011086,1.477e-05,0.0,0 STARLINK-4738,1 53819U 22114B   24211.87773359  .00001477  00000-0  11086-3 0  9993,2 53819  53.2176  62.7847 0001440  95.3573 264.7583 15.08839090104099,6917.883,95.438,540.744,538.752,0.0
53819.0,STARLINK-4738,PAYLOAD,2024-07-30 06:36:15,15.08836216,0.0001381,53.2173,60.9991,86.7194,273.3956,4.2127e-05,3.83e-06,0.0,0 STARLINK-4738,1 53819U 22114B   24212.27517872  .00000383  00000-0  42127-4 0  9990,2 53819  53.2173  60.9991 0001381  86.7194 273.3956 15.08836216103617,6917.892,95.438,540.712,538.802,0.0
53819.0,STARLINK-4738,PAYLOAD,2024-07-30 20:54:43,15.08838966,0.0001427,53.2172,58.3222,85.7241,274.3914,2.378e-05,9.1e-07,0.0,0 STARLINK-4738,1 53819U 22114B   24212.87133924  .00000091  00000-0  23780-4 0  9998,2 53819  53.2172  58.3222 0001427  85.7241 274.3914 15.08838966104246,6917.884,95.438,540.736,538.761,0.0
53819.0,STARLINK-4738,PAYLOAD,2024-07-31 06:27:02,15.08837368,0.0001676,53.218,56.5349,67.2807,292.8362,1.662e-05,-2.4e-07,0.0,0 STARLINK-4738,1 53819U 22114B   24213.26878156 -.00000024  00000-0  16620-4 0  9997,2 53819  53.2180  56.5349 0001676  67.2807 292.8362 15.08837368104308,6917.888,95.438,540.913,538.594,0.0
53819.0,STARLINK-4738,PAYLOAD,2024-07-31 20:45:31,15.08835575,0.0001238,53.2174,53.8649,93.4166,266.6967,-3.3251e-05,-8.17e-06,0.0,0 STARLINK-4738,1 53819U 22114B   24213.86494623 -.00000817  00000-0 -33251-4 0  9996,2 53819  53.2174  53.8649 0001238  93.4166 266.6967 15.08835575103854,6917.894,95.438,540.615,538.902,0.0
53819.0,STARLINK-4738,PAYLOAD,2024-07-31 22:20:53,15.08855172,0.0001385,53.2174,53.567,93.3039,266.8111,-0.00024015,-4.11e-05,0.0,0 STARLINK-4738,1 53819U 22114B   24213.93117989 -.00004110  00000-0 -24015-3 0  9998,2 53819  53.2174  53.5670 0001385  93.3039 266.8111 15.08855172104406,6917.834,95.437,540.657,538.741,0.0
53819.0,STARLINK-4738,PAYLOAD,2024-08-01 06:17:49,15.08842228,0.0001286,53.2172,52.0797,91.7976,268.3163,1.8573e-05,8e-08,0.0,0 STARLINK-4738,1 53819U 22114B   24214.26238105  .00000008  00000-0  18573-4 0  9992,2 53819  53.2172  52.0797 0001286  91.7976 268.3163 15.08842228103917,6917.874,95.437,540.628,538.849,0.0
53819.0,STARLINK-4738,PAYLOAD,2024-08-01 20:36:16,15.08859011,9.8e-05,53.2173,49.4,68.0506,292.0591,0.00015269,2.144e-05,0.0,0 STARLINK-4738,1 53819U 22114B   24214.85852514  .00002144  00000-0  15269-3 0  9994,2 53819  53.2173  49.4000 0000980  68.0506 292.0591 15.08859011104009,6917.822,95.436,540.365,539.009,0.0
53819.0,STARLINK-4738,PAYLOAD,2024-08-01 22:11:39,15.08860691,0.0001173,53.2171,49.1046,82.9657,277.1468,0.00021752,3.178e-05,0.0,0 STARLINK-4738,1 53819U 22114B   24214.92476203  .00003178  00000-0  21752-3 0  9991,2 53819  53.2171  49.1046 0001173  82.9657 277.1468 15.08860691104554,6917.817,95.436,540.494,538.871,0.0
53819.0,STARLINK-4738,PAYLOAD,2024-08-02 12:30:09,15.088298,0.0001786,53.2158,46.4302,81.1523,278.9671,0.00010139,1.325e-05,0.0,0 STARLINK-4738,1 53819U 22114B   24215.52094837  .00001325  00000-0  10139-3 0  9996,2 53819  53.2158  46.4302 0001786  81.1523 278.9671 15.08829800104100,6917.912,95.438,541.012,538.541,0.0
53819.0,STARLINK-4738,PAYLOAD,2024-08-02 22:02:28,15.08835662,0.0001452,53.2161,44.644,80.7932,279.3225,1.9342e-05,2e-07,0.0,0 STARLINK-4738,1 53819U 22114B   24215.91838649  .00000020  00000-0  19342-4 0  9993,2 53819  53.2161  44.6440 0001452  80.7932 279.3225 15.08835662104705,6917.894,95.438,540.763,538.754,0.0
53819.0,STARLINK-4738,PAYLOAD,2024-08-03 12:20:56,15.0884525,0.0001545,53.2166,41.9685,80.2857,279.8309,0.00018396,2.641e-05,0.0,0 STARLINK-4738,1 53819U 22114B   24216.51454324  .00002641  00000-0  18396-3 0  9992,2 53819  53.2166  41.9685 0001545  80.2857 279.8309 15.08845250104257,6917.864,95.437,540.798,538.661,0.0
53819.0,STARLINK-4738,PAYLOAD,2024-08-03 18:42:28,15.08858303,0.0001576,53.2157,40.7792,81.1311,278.986,0.00098909,0.00015496,0.0,0 STARLINK-4738,1 53819U 22114B   24216.77950230  .00015496  00000-0  98909-3 0  9997,2 53819  53.2157  40.7792 0001576  81.1311 278.9860 15.08858303104831,6917.824,95.436,540.78,538.599,0.0
53819.0,STARLINK-4738,PAYLOAD,2024-08-04 12:11:42,15.08875616,0.0001765,53.2163,37.5083,89.373,270.7465,0.0009053,0.00014163,0.0,0 STARLINK-4738,1 53819U 22114B   24217.50813095  .00014163  00000-0  90530-3 0  9998,2 53819  53.2163  37.5083 0001765  89.3730 270.7465 15.08875616104949,6917.772,95.435,540.858,538.416,0.0
53819.0,STARLINK-4738,PAYLOAD,2024-08-04 18:33:14,15.08880009,0.0001804,53.2169,36.3173,95.4568,264.663,0.00077864,0.00012139,0.0,0 STARLINK-4738,1 53819U 22114B   24217.77308401  .00012139  00000-0  77864-3 0  9993,2 53819  53.2169  36.3173 0001804  95.4568 264.6630 15.08880009104446,6917.758,95.435,540.871,538.375,0.0
53819.0,STARLINK-4738,PAYLOAD,2024-08-05 18:24:02,15.08831514,0.0001262,53.2174,31.8577,102.9656,257.1478,-0.00038095,-6.344e-05,0.0,0 STARLINK-4738,1 53819U 22114B   24218.76669136 -.00006344  00000-0 -38095-3 0  9994,2 53819  53.2174  31.8577 0001262 102.9656 257.1478 15.08831514104590,6917.906,95.438,540.644,538.898,0.0
53819.0,STARLINK-4738,PAYLOAD,2024-08-06 11:53:17,15.08821625,0.0001119,53.2175,28.5855,107.4903,252.6211,-0.00015809,-2.802e-05,0.0,0 STARLINK-4738,1 53819U 22114B   24219.49534240 -.00002802  00000-0 -15809-3 0  9995,2 53819  53.2175  28.5855 0001119 107.4903 252.6211 15.08821625105249,6917.937,95.439,540.576,539.027,0.0
53819.0,STARLINK-4738,PAYLOAD,2024-08-06 18:14:50,15.08830313,0.0001163,53.2176,27.4007,109.4792,250.6325,8.0213e-06,-1.6e-06,0.0,0 STARLINK-4738,1 53819U 22114B   24219.76030228 -.00000160  00000-0  80213-5 0  9999,2 53819  53.2176  27.4007 0001163 109.4792 250.6325 15.08830313105286,6917.91,95.438,540.58,538.97,0.0
53819.0,STARLINK-4738,PAYLOAD,2024-08-07 11:44:05,15.08833808,0.0001191,53.218,24.1296,113.5462,246.5656,0.00039455,5.996e-05,0.0,0 STARLINK-4738,1 53819U 22114B   24220.48894915  .00005996  00000-0  39455-3 0  9992,2 53819  53.2180  24.1296 0001191 113.5462 246.5656 15.08833808104851,6917.899,95.438,540.588,538.94,0.0
53819.0,STARLINK-4738,PAYLOAD,2024-08-07 18:05:37,15.08849334,0.0001216,53.2181,22.9407,112.8394,247.2727,0.00064605,0.00010011,0.0,0 STARLINK-4738,1 53819U 22114B   24220.75390588  .00010011  00000-0  64605-3 0  9998,2 53819  53.2181  22.9407 0001216 112.8394 247.2727 15.08849334104898,6917.852,95.437,540.558,538.876,0.0
53819.0,STARLINK-4738,PAYLOAD,2024-08-08 17:56:24,15.08856151,0.0001292,53.2176,18.4781,69.6585,290.4546,0.00064296,9.964e-05,0.0,0 STARLINK-4738,1 53819U 22114B   24221.74750694  .00009964  00000-0  64296-3 0  9997,2 53819  53.2176  18.4781 0001292  69.6585 290.4546 15.08856151105044,6917.831,95.437,540.59,538.802,0.0
53819.0,STARLINK-4738,PAYLOAD,2024-08-09 03:28:42,15.0884911,0.0001021,53.2178,16.6924,95.1191,264.9918,0.00057815,8.928e-05,0.0,0 STARLINK-4738,1 53819U 22114B   24222.14494173  .00008928  00000-0  57815-3 0  9997,2 53819  53.2178  16.6924 0001021  95.1191 264.9918 15.08849110105105,6917.853,95.437,540.424,539.011,0.0
53819.0,STARLINK-4738,PAYLOAD,2024-08-09 19:22:34,15.08856319,0.0001194,53.2176,13.7176,96.4857,263.6271,0.0016299,0.00025759,0.0,0 STARLINK-4738,1 53819U 22114B   24222.80734613  .00025759  00000-0  16299-2 0  9997,2 53819  53.2176  13.7176 0001194  96.4857 263.6271 15.08856319105202,6917.831,95.437,540.521,538.87,0.0
53819.0,STARLINK-4738,PAYLOAD,2024-08-10 14:27:12,15.08852376,0.0001072,53.2168,10.1496,112.6754,247.4351,0.0018427,0.0002917,0.0,0 STARLINK-4738,1 53819U 22114B   24223.60223129  .00029170  00000-0  18427-2 0  9997,2 53819  53.2168  10.1496 0001072 112.6754 247.4351 15.08852376105861,6917.843,95.437,540.449,538.966,0.0
53819.0,STARLINK-4738,PAYLOAD,2024-08-10 19:13:21,15.0887849,8.37e-05,53.2162,9.2604,115.0405,245.0675,0.0028991,0.00046203,0.0,0 STARLINK-4738,1 53819U 22114B   24223.80094724  .00046203  00000-0  28991-2 0  9999,2 53819  53.2162   9.2604 0000837 115.0405 245.0675 15.08878490105355,6917.763,95.435,540.207,539.049,0.0
